{"type": "FeatureCollection", "features": [ {"type": "Feature", "properties": {"norad_id": 67060, "name": "HULIANWANG DIGUI-120", "group": "last-30-days", "lat": 47.42876489850202, "lon": 27.76482914672949, "alt_km": 807.1573713018151, "timestamp": "2025-12-24T16:52:40.182094+00:00", "meta": {"OBJECT_NAME": "HULIANWANG DIGUI-120", "OBJECT_ID": "2025-295B", "EPOCH": "2025-12-23T18:39:46.505376", "MEAN_MOTION": 14.25711377, "ECCENTRICITY": 0.0013178, "INCLINATION": 50.0058, "RA_OF_ASC_NODE": 325.6343, "ARG_OF_PERICENTER": 286.4479, "MEAN_ANOMALY": 73.4987, "EPHEMERIS_TYPE": 0, "CLASSIFICATION_TYPE": "U", "NORAD_CAT_ID": 67060, "ELEMENT_SET_NO": 999, "REV_AT_EPOCH": 169, "BSTAR": 6.7209387e-05, "MEAN_MOTION_DOT": 1e-08, "MEAN_MOTION_DDOT": 0}, "tle": {"line1": "1 67060U 25295B   25357.77762159  .00000001  00000+0  67209-4 0  9996", "line2": "2 67060  50.0058 325.6343 0013178 286.4479  73.4987 14.25711377  1697"}}, "geometry": {"type": "Point", "coordinates": [27.76482914672949, 47.42876489850202]}}, {"type": "Feature", "properties": {"norad_id": 67061, "name": "HULIANWANG DIGUI-121", "group": "last-30-days", "lat": 44.22946949255241, "lon": 16.543253811588723, "alt_km": 809.3159951617863, "timestamp": "2025-12-24T16:52:40.182104+00:00", "meta": {"OBJECT_NAME": "HULIANWANG DIGUI-121", "OBJECT_ID": "2025-295C", "EPOCH": "2025-12-23T10:16:36.437664", "MEAN_MOTION": 14.25038967, "ECCENTRICITY": 0.00134061, "INCLINATION": 50.0019, "RA_OF_ASC_NODE": 327.1083, "ARG_OF_PERICENTER": 283.4183, "MEAN_ANOMALY": 76.5236, "EPHEMERIS_TYPE": 0, "CLASSIFICATION_TYPE": "U", "NORAD_CAT_ID": 67061, "ELEMENT_SET_NO": 999, "REV_AT_EPOCH": 164, "BSTAR": -3.3550159e-05, "MEAN_MOTION_DOT": -2.39e-06, "MEAN_MOTION_DDOT": 0}, "tle": {"line1": "1 67061U 25295C   25357.42819951 -.00000239  00000+0 -33550-4 0  9999", "line2": "2 67061  50.0019 327.1083 0013406 283.4183  76.5236 14.25038967  1649"}}, "geometry": {"type": "Point", "coordinates": [16.543253811588723, 44.22946949255241]}}, {"type": "Feature", "properties": {"norad_id": 67062, "name": "HULIANWANG DIGUI-122", "group": "last-30-days", "lat": 48.06211729133131, "lon": 30.847068132228983, "alt_km": 806.5323875084487, "timestamp": "2025-12-24T16:52:40.182114+00:00", "meta": {"OBJECT_NAME": "HULIANWANG DIGUI-122", "OBJECT_ID": "2025-295D", "EPOCH": "2025-12-24T06:25:43.579200", "MEAN_MOTION": 14.25757793, "ECCENTRICITY": 0.00131634, "INCLINATION": 50.0052, "RA_OF_ASC_NODE": 323.5589, "ARG_OF_PERICENTER": 294.0205, "MEAN_ANOMALY": 65.933, "EPHEMERIS_TYPE": 0, "CLASSIFICATION_TYPE": "U", "NORAD_CAT_ID": 67062, "ELEMENT_SET_NO": 999, "REV_AT_EPOCH": 176, "BSTAR": 7.1678156e-05, "MEAN_MOTION_DOT": 1.1e-07, "MEAN_MOTION_DDOT": 0}, "tle": {"line1": "1 67062U 25295D   25358.26786550  .00000011  00000+0  71678-4 0  9990", "line2": "2 67062  50.0052 323.5589 0013163 294.0205  65.9330 14.25757793  1766"}}, "geometry": {"type": "Point", "coordinates": [30.847068132228983, 48.06211729133131]}}, {"type": "Feature", "properties": {"norad_id": 67063, "name": "HULIANWANG DIGUI-123", "group": "last-30-days", "lat": 49.37509792453138, "lon": 39.82323115346351, "alt_km": 806.1477231415847, "timestamp": "2025-12-24T16:52:40.182124+00:00", "meta": {"OBJECT_NAME": "HULIANWANG DIGUI-123", "OBJECT_ID": "2025-295E", "EPOCH": "2025-12-23T18:37:38.191872", "MEAN_MOTION": 14.25890271, "ECCENTRICITY": 0.00124733, "INCLINATION": 50.0059, "RA_OF_ASC_NODE": 325.6275, "ARG_OF_PERICENTER": 291.5304, "MEAN_ANOMALY": 68.428, "EPHEMERIS_TYPE": 0, "CLASSIFICATION_TYPE": "U", "NORAD_CAT_ID": 67063, "ELEMENT_SET_NO": 999, "REV_AT_EPOCH": 169, "BSTAR": 6.4661609e-05, "MEAN_MOTION_DOT": -5e-08, "MEAN_MOTION_DDOT": 0}, "tle": {"line1": "1 67063U 25295E   25357.77613648 -.00000005  00000+0  64662-4 0  9992", "line2": "2 67063  50.0059 325.6275 0012473 291.5304  68.4280 14.25890271  1697"}}, "geometry": {"type": "Point", "coordinates": [39.82323115346351, 49.37509792453138]}}, {"type": "Feature", "properties": {"norad_id": 67064, "name": "HULIANWANG DIGUI-124", "group": "last-30-days", "lat": 49.72860596136163, "lon": 43.97253096638481, "alt_km": 806.3106140206564, "timestamp": "2025-12-24T16:52:40.182134+00:00", "meta": {"OBJECT_NAME": "HULIANWANG DIGUI-124", "OBJECT_ID": "2025-295F", "EPOCH": "2025-12-22T05:36:45.096192", "MEAN_MOTION": 14.25948838, "ECCENTRICITY": 0.00121422, "INCLINATION": 50.0035, "RA_OF_ASC_NODE": 332.1235, "ARG_OF_PERICENTER": 280.5756, "MEAN_ANOMALY": 79.379, "EPHEMERIS_TYPE": 0, "CLASSIFICATION_TYPE": "U", "NORAD_CAT_ID": 67064, "ELEMENT_SET_NO": 999, "REV_AT_EPOCH": 147, "BSTAR": -0.00021789546, "MEAN_MOTION_DOT": -6.84e-06, "MEAN_MOTION_DDOT": 0}, "tle": {"line1": "1 67064U 25295F   25356.23385528 -.00000684  00000+0 -21790-3 0  9994", "line2": "2 67064  50.0035 332.1235 0012142 280.5756  79.3790 14.25948838  1479"}}, "geometry": {"type": "Point", "coordinates": [43.97253096638481, 49.72860596136163]}}, {"type": "Feature", "properties": {"norad_id": 67065, "name": "HULIANWANG DIGUI-125", "group": "last-30-days", "lat": 49.75299128280064, "lon": 44.38726589128945, "alt_km": 805.9321424909795, "timestamp": "2025-12-24T16:52:40.182149+00:00", "meta": {"OBJECT_NAME": "HULIANWANG DIGUI-125", "OBJECT_ID": "2025-295G", "EPOCH": "2025-12-24T03:01:26.356800", "MEAN_MOTION": 14.25956035, "ECCENTRICITY": 0.00122653, "INCLINATION": 50.0009, "RA_OF_ASC_NODE": 324.1276, "ARG_OF_PERICENTER": 293.4537, "MEAN_ANOMALY": 66.5087, "EPHEMERIS_TYPE": 0, "CLASSIFICATION_TYPE": "U", "NORAD_CAT_ID": 67065, "ELEMENT_SET_NO": 999, "REV_AT_EPOCH": 174, "BSTAR": 6.5028559e-05, "MEAN_MOTION_DOT": -4e-08, "MEAN_MOTION_DDOT": 0}, "tle": {"line1": "1 67065U 25295G   25358.12599950 -.00000004  00000+0  65029-4 0  9990", "line2": "2 67065  50.0009 324.1276 0012265 293.4537  66.5087 14.25956035  1748"}}, "geometry": {"type": "Point", "coordinates": [44.38726589128945, 49.75299128280064]}}, {"type": "Feature", "properties": {"norad_id": 67066, "name": "HULIANWANG DIGUI-126", "group": "last-30-days", "lat": 49.94493166975426, "lon": 54.65629691295904, "alt_km": 805.479564962111, "timestamp": "2025-12-24T16:52:40.182175+00:00", "meta": {"OBJECT_NAME": "HULIANWANG DIGUI-126", "OBJECT_ID": "2025-295H", "EPOCH": "2025-12-24T06:21:28.499616", "MEAN_MOTION": 14.26099173, "ECCENTRICITY": 0.00114198, "INCLINATION": 50.0012, "RA_OF_ASC_NODE": 323.5281, "ARG_OF_PERICENTER": 291.1473, "MEAN_ANOMALY": 68.8221, "EPHEMERIS_TYPE": 0, "CLASSIFICATION_TYPE": "U", "NORAD_CAT_ID": 67066, "ELEMENT_SET_NO": 999, "REV_AT_EPOCH": 176, "BSTAR": 7.4797066e-05, "MEAN_MOTION_DOT": 2e-07, "MEAN_MOTION_DDOT": 0}, "tle": {"line1": "1 67066U 25295H   25358.26491319  .00000020  00000+0  74797-4 0  9995", "line2": "2 67066  50.0012 323.5281 0011419 291.1473  68.8221 14.26099173  1765"}}, "geometry": {"type": "Point", "coordinates": [54.65629691295904, 49.94493166975426]}}, {"type": "Feature", "properties": {"norad_id": 67067, "name": "HULIANWANG DIGUI-127", "group": "last-30-days", "lat": 49.254268116781475, "lon": 64.65930081968044, "alt_km": 804.8141948836346, "timestamp": "2025-12-24T16:52:40.182200+00:00", "meta": {"OBJECT_NAME": "HULIANWANG DIGUI-127", "OBJECT_ID": "2025-295J", "EPOCH": "2025-12-22T15:39:07.411968", "MEAN_MOTION": 14.26251195, "ECCENTRICITY": 0.00108509, "INCLINATION": 50.0053, "RA_OF_ASC_NODE": 330.3407, "ARG_OF_PERICENTER": 289.3117, "MEAN_ANOMALY": 70.6623, "EPHEMERIS_TYPE": 0, "CLASSIFICATION_TYPE": "U", "NORAD_CAT_ID": 67067, "ELEMENT_SET_NO": 999, "REV_AT_EPOCH": 153, "BSTAR": -0.00027534515, "MEAN_MOTION_DOT": -8.25e-06, "MEAN_MOTION_DDOT": 0}, "tle": {"line1": "1 67067U 25295J   25356.65216912 -.00000825  00000+0 -27535-3 0  9993", "line2": "2 67067  50.0053 330.3407 0010850 289.3117  70.6623 14.26251195  1535"}}, "geometry": {"type": "Point", "coordinates": [64.65930081968044, 49.254268116781475]}}, {"type": "Feature", "properties": {"norad_id": 67068, "name": "CZ-12 R/B", "group": "last-30-days", "lat": 40.19762799484852, "lon": 5.606703787125755, "alt_km": 770.1090928090753, "timestamp": "2025-12-24T16:52:40.182218+00:00", "meta": {"OBJECT_NAME": "CZ-12 R/B", "OBJECT_ID": "2025-295K", "EPOCH": "2025-12-24T06:37:29.321184", "MEAN_MOTION": 14.41129728, "ECCENTRICITY": 0.00568837, "INCLINATION": 49.9942, "RA_OF_ASC_NODE": 322.2519, "ARG_OF_PERICENTER": 177.271, "MEAN_ANOMALY": 182.8531, "EPHEMERIS_TYPE": 0, "CLASSIFICATION_TYPE": "U", "NORAD_CAT_ID": 67068, "ELEMENT_SET_NO": 999, "REV_AT_EPOCH": 177, "BSTAR": 2.677507e-05, "MEAN_MOTION_DOT": -8e-07, "MEAN_MOTION_DDOT": 0}, "tle": {"line1": "1 67068U 25295K   25358.27603381 -.00000080  00000+0  26775-4 0  9992", "line2": "2 67068  49.9942 322.2519 0056883 177.2710 182.8531 14.41129728  1777"}}, "geometry": {"type": "Point", "coordinates": [5.606703787125755, 40.19762799484852]}}, {"type": "Feature", "properties": {"norad_id": 67069, "name": "XIWANG-5 02", "group": "last-30-days", "lat": 41.0126879038524, "lon": 131.91580681625567, "alt_km": 498.77076581054644, "timestamp": "2025-12-24T16:52:40.182235+00:00", "meta": {"OBJECT_NAME": "XIWANG-5 02", "OBJECT_ID": "2025-296A", "EPOCH": "2025-12-23T12:00:44.103744", "MEAN_MOTION": 15.16891516, "ECCENTRICITY": 0.00145566, "INCLINATION": 41.3523, "RA_OF_ASC_NODE": 40.1941, "ARG_OF_PERICENTER": 102.8792, "MEAN_ANOMALY": 257.3656, "EPHEMERIS_TYPE": 0, "CLASSIFICATION_TYPE": "U", "NORAD_CAT_ID": 67069, "ELEMENT_SET_NO": 999, "REV_AT_EPOCH": 159, "BSTAR": 0.00060249038, "MEAN_MOTION_DOT": 0.00011945, "MEAN_MOTION_DDOT": 0}, "tle": {"line1": "1 67069U 25296A   25357.50051046  .00011945  00000+0  60249-3 0  9998", "line2": "2 67069  41.3523  40.1941 0014556 102.8792 257.3656 15.16891516  1599"}}, "geometry": {"type": "Point", "coordinates": [131.91580681625567, 41.0126879038524]}}]}